[
  {
    "COMMENT": "GENERATED VIA SPACETRACK.ORG API",
    "ORIGINATOR": "JSPOC",
    "NORAD_CAT_ID": "40076",
    "OBJECT_NAME": "TDS 1",
    "OBJECT_TYPE": "PAYLOAD",
    "CLASSIFICATION_TYPE": "U",
    "INTLDES": "14037H",
    "EPOCH": "2016-08-10 18:51:03",
    "EPOCH_MICROSECONDS": "237696",
    "MEAN_MOTION": "14.81212377",
    "ECCENTRICITY": "0.0006055",
    "INCLINATION": "98.3251",
    "RA_OF_ASC_NODE": "316.8694",
    "ARG_OF_PERICENTER": "3.3588",
    "MEAN_ANOMALY": "356.7666",
    "EPHEMERIS_TYPE": "0",
    "ELEMENT_SET_NO": "999",
    "REV_AT_EPOCH": "11307",
    "BSTAR": "2.2609e-05",
    "MEAN_MOTION_DOT": "1.19e-06",
    "MEAN_MOTION_DDOT": "0",
    "FILE": "2071701",
    "TLE_LINE0": "0 TDS 1",
    "TLE_LINE1": "1 40076U 14037H   16223.78545414  .00000119  00000-0  22609-4 0  9998",
    "TLE_LINE2": "2 40076  98.3251 316.8694 0006055   3.3588 356.7666 14.81212377113074",
    "OBJECT_ID": "2014-037H",
    "OBJECT_NUMBER": "40076",
    "SEMIMAJOR_AXIS": "7003.636",
    "PERIOD": "97.217",
    "APOGEE": "629.742",
    "PERIGEE": "621.261"
  },
  {
    "COMMENT": "GENERATED VIA SPACETRACK.ORG API",
    "ORIGINATOR": "JSPOC",
    "NORAD_CAT_ID": "40076",
    "OBJECT_NAME": "TDS 1",
    "OBJECT_TYPE": "PAYLOAD",
    "CLASSIFICATION_TYPE": "U",
    "INTLDES": "14037H",
    "EPOCH": "2016-08-11 02:57:26",
    "EPOCH_MICROSECONDS": "118144",
    "MEAN_MOTION": "14.81212208",
    "ECCENTRICITY": "0.0006028",
    "INCLINATION": "98.325",
    "RA_OF_ASC_NODE": "317.2199",
    "ARG_OF_PERICENTER": "2.5842",
    "MEAN_ANOMALY": "357.539",
    "EPHEMERIS_TYPE": "0",
    "ELEMENT_SET_NO": "999",
    "REV_AT_EPOCH": "11312",
    "BSTAR": "1.9086e-05",
    "MEAN_MOTION_DOT": "9.1e-07",
    "MEAN_MOTION_DDOT": "0",
    "FILE": "2071852",
    "TLE_LINE0": "0 TDS 1",
    "TLE_LINE1": "1 40076U 14037H   16224.12321896  .00000091  00000-0  19086-4 0  9997",
    "TLE_LINE2": "2 40076  98.3250 317.2199 0006028   2.5842 357.5390 14.81212208113124",
    "OBJECT_ID": "2014-037H",
    "OBJECT_NUMBER": "40076",
    "SEMIMAJOR_AXIS": "7003.637",
    "PERIOD": "97.217",
    "APOGEE": "629.724",
    "PERIGEE": "621.280"
  },
  {
    "COMMENT": "GENERATED VIA SPACETRACK.ORG API",
    "ORIGINATOR": "JSPOC",
    "NORAD_CAT_ID": "40076",
    "OBJECT_NAME": "TDS 1",
    "OBJECT_TYPE": "PAYLOAD",
    "CLASSIFICATION_TYPE": "U",
    "INTLDES": "14037H",
    "EPOCH": "2016-08-11 06:11:59",
    "EPOCH_MICROSECONDS": "280864",
    "MEAN_MOTION": "14.81212293",
    "ECCENTRICITY": "0.0006012",
    "INCLINATION": "98.325",
    "RA_OF_ASC_NODE": "317.3605",
    "ARG_OF_PERICENTER": "2.0559",
    "MEAN_ANOMALY": "358.0683",
    "EPHEMERIS_TYPE": "0",
    "ELEMENT_SET_NO": "999",
    "REV_AT_EPOCH": "11314",
    "BSTAR": "1.9519e-05",
    "MEAN_MOTION_DOT": "9.5e-07",
    "MEAN_MOTION_DDOT": "0",
    "FILE": "2071948",
    "TLE_LINE0": "0 TDS 1",
    "TLE_LINE1": "1 40076U 14037H   16224.25832501  .00000095  00000-0  19519-4 0  9996",
    "TLE_LINE2": "2 40076  98.3250 317.3605 0006012   2.0559 358.0683 14.81212293113147",
    "OBJECT_ID": "2014-037H",
    "OBJECT_NUMBER": "40076",
    "SEMIMAJOR_AXIS": "7003.637",
    "PERIOD": "97.217",
    "APOGEE": "629.712",
    "PERIGEE": "621.291"
  },
  {
    "COMMENT": "GENERATED VIA SPACETRACK.ORG API",
    "ORIGINATOR": "JSPOC",
    "NORAD_CAT_ID": "40076",
    "OBJECT_NAME": "TDS 1",
    "OBJECT_TYPE": "PAYLOAD",
    "CLASSIFICATION_TYPE": "U",
    "INTLDES": "14037H",
    "EPOCH": "2016-08-11 19:10:11",
    "EPOCH_MICROSECONDS": "844480",
    "MEAN_MOTION": "14.81212596",
    "ECCENTRICITY": "0.0005996",
    "INCLINATION": "98.325",
    "RA_OF_ASC_NODE": "317.9215",
    "ARG_OF_PERICENTER": "0.372",
    "MEAN_ANOMALY": "359.75",
    "EPHEMERIS_TYPE": "0",
    "ELEMENT_SET_NO": "999",
    "REV_AT_EPOCH": "11322",
    "BSTAR": "2.1405e-05",
    "MEAN_MOTION_DOT": "1.09e-06",
    "MEAN_MOTION_DDOT": "0",
    "FILE": "2071990",
    "TLE_LINE0": "0 TDS 1",
    "TLE_LINE1": "1 40076U 14037H   16224.79874820 +.00000109 +00000-0 +21405-4 0  9998",
    "TLE_LINE2": "2 40076 098.3250 317.9215 0005996 000.3720 359.7500 14.81212596113222",
    "OBJECT_ID": "2014-037H",
    "OBJECT_NUMBER": "40076",
    "SEMIMAJOR_AXIS": "7003.636",
    "PERIOD": "97.217",
    "APOGEE": "629.700",
    "PERIGEE": "621.301"
  },
  {
    "COMMENT": "GENERATED VIA SPACETRACK.ORG API",
    "ORIGINATOR": "JSPOC",
    "NORAD_CAT_ID": "40076",
    "OBJECT_NAME": "TDS 1",
    "OBJECT_TYPE": "PAYLOAD",
    "CLASSIFICATION_TYPE": "U",
    "INTLDES": "14037H",
    "EPOCH": "2016-08-12 03:16:34",
    "EPOCH_MICROSECONDS": "749984",
    "MEAN_MOTION": "14.81212305",
    "ECCENTRICITY": "0.0005964",
    "INCLINATION": "98.3249",
    "RA_OF_ASC_NODE": "318.272",
    "ARG_OF_PERICENTER": "359.519",
    "MEAN_ANOMALY": "0.6012",
    "EPHEMERIS_TYPE": "0",
    "ELEMENT_SET_NO": "999",
    "REV_AT_EPOCH": "11327",
    "BSTAR": "1.7156e-05",
    "MEAN_MOTION_DOT": "7.6e-07",
    "MEAN_MOTION_DDOT": "0",
    "FILE": "2072364",
    "TLE_LINE0": "0 TDS 1",
    "TLE_LINE1": "1 40076U 14037H   16225.13651331  .00000076  00000-0  17156-4 0  9998",
    "TLE_LINE2": "2 40076  98.3249 318.2720 0005964 359.5190   0.6012 14.81212305113273",
    "OBJECT_ID": "2014-037H",
    "OBJECT_NUMBER": "40076",
    "SEMIMAJOR_AXIS": "7003.637",
    "PERIOD": "97.217",
    "APOGEE": "629.679",
    "PERIGEE": "621.325"
  },
  {
    "COMMENT": "GENERATED VIA SPACETRACK.ORG API",
    "ORIGINATOR": "JSPOC",
    "NORAD_CAT_ID": "40076",
    "OBJECT_NAME": "TDS 1",
    "OBJECT_TYPE": "PAYLOAD",
    "CLASSIFICATION_TYPE": "U",
    "INTLDES": "14037H",
    "EPOCH": "2016-08-12 11:22:57",
    "EPOCH_MICROSECONDS": "598464",
    "MEAN_MOTION": "14.81212494",
    "ECCENTRICITY": "0.0005939",
    "INCLINATION": "98.3249",
    "RA_OF_ASC_NODE": "318.6227",
    "ARG_OF_PERICENTER": "358.2673",
    "MEAN_ANOMALY": "1.8516",
    "EPHEMERIS_TYPE": "0",
    "ELEMENT_SET_NO": "999",
    "REV_AT_EPOCH": "11332",
    "BSTAR": "1.8107e-05",
    "MEAN_MOTION_DOT": "8.4e-07",
    "MEAN_MOTION_DDOT": "0",
    "FILE": "2072475",
    "TLE_LINE0": "0 TDS 1",
    "TLE_LINE1": "1 40076U 14037H   16225.47427776  .00000084  00000-0  18107-4 0  9995",
    "TLE_LINE2": "2 40076  98.3249 318.6227 0005939 358.2673   1.8516 14.81212494113320",
    "OBJECT_ID": "2014-037H",
    "OBJECT_NUMBER": "40076",
    "SEMIMAJOR_AXIS": "7003.636",
    "PERIOD": "97.217",
    "APOGEE": "629.660",
    "PERIGEE": "621.342"
  },
  {
    "COMMENT": "GENERATED VIA SPACETRACK.ORG API",
    "ORIGINATOR": "JSPOC",
    "NORAD_CAT_ID": "40076",
    "OBJECT_NAME": "TDS 1",
    "OBJECT_TYPE": "PAYLOAD",
    "CLASSIFICATION_TYPE": "U",
    "INTLDES": "14037H",
    "EPOCH": "2016-08-12 19:29:20",
    "EPOCH_MICROSECONDS": "460768",
    "MEAN_MOTION": "14.81212732",
    "ECCENTRICITY": "0.000593",
    "INCLINATION": "98.3249",
    "RA_OF_ASC_NODE": "318.9733",
    "ARG_OF_PERICENTER": "357.3086",
    "MEAN_ANOMALY": "2.8099",
    "EPHEMERIS_TYPE": "0",
    "ELEMENT_SET_NO": "999",
    "REV_AT_EPOCH": "11337",
    "BSTAR": "2.0451e-05",
    "MEAN_MOTION_DOT": "1.02e-06",
    "MEAN_MOTION_DDOT": "0",
    "FILE": "2071991",
    "TLE_LINE0": "0 TDS 1",
    "TLE_LINE1": "1 40076U 14037H   16225.81204237 +.00000102 +00000-0 +20451-4 0  9994",
    "TLE_LINE2": "2 40076 098.3249 318.9733 0005930 357.3086 002.8099 14.81212732113371",
    "OBJECT_ID": "2014-037H",
    "OBJECT_NUMBER": "40076",
    "SEMIMAJOR_AXIS": "7003.635",
    "PERIOD": "97.217",
    "APOGEE": "629.653",
    "PERIGEE": "621.347"
  },
  {
    "COMMENT": "GENERATED VIA SPACETRACK.ORG API",
    "ORIGINATOR": "JSPOC",
    "NORAD_CAT_ID": "40076",
    "OBJECT_NAME": "TDS 1",
    "OBJECT_TYPE": "PAYLOAD",
    "CLASSIFICATION_TYPE": "U",
    "INTLDES": "14037H",
    "EPOCH": "2016-08-13 03:35:43",
    "EPOCH_MICROSECONDS": "336032",
    "MEAN_MOTION": "14.81212627",
    "ECCENTRICITY": "0.000592",
    "INCLINATION": "98.3248",
    "RA_OF_ASC_NODE": "319.324",
    "ARG_OF_PERICENTER": "356.1368",
    "MEAN_ANOMALY": "3.9796",
    "EPHEMERIS_TYPE": "0",
    "ELEMENT_SET_NO": "999",
    "REV_AT_EPOCH": "11342",
    "BSTAR": "1.8178e-05",
    "MEAN_MOTION_DOT": "8.4e-07",
    "MEAN_MOTION_DDOT": "0",
    "FILE": "2072714",
    "TLE_LINE0": "0 TDS 1",
    "TLE_LINE1": "1 40076U 14037H   16226.14980713  .00000084  00000-0  18178-4 0  9993",
    "TLE_LINE2": "2 40076  98.3248 319.3240 0005920 356.1368   3.9796 14.81212627113422",
    "OBJECT_ID": "2014-037H",
    "OBJECT_NUMBER": "40076",
    "SEMIMAJOR_AXIS": "7003.636",
    "PERIOD": "97.217",
    "APOGEE": "629.647",
    "PERIGEE": "621.354"
  },
  {
    "COMMENT": "GENERATED VIA SPACETRACK.ORG API",
    "ORIGINATOR": "JSPOC",
    "NORAD_CAT_ID": "40076",
    "OBJECT_NAME": "TDS 1",
    "OBJECT_TYPE": "PAYLOAD",
    "CLASSIFICATION_TYPE": "U",
    "INTLDES": "14037H",
    "EPOCH": "2016-08-13 11:42:06",
    "EPOCH_MICROSECONDS": "167232",
    "MEAN_MOTION": "14.81212859",
    "ECCENTRICITY": "0.000589",
    "INCLINATION": "98.3247",
    "RA_OF_ASC_NODE": "319.6746",
    "ARG_OF_PERICENTER": "354.8163",
    "MEAN_ANOMALY": "5.2987",
    "EPHEMERIS_TYPE": "0",
    "ELEMENT_SET_NO": "999",
    "REV_AT_EPOCH": "11347",
    "BSTAR": "1.9418e-05",
    "MEAN_MOTION_DOT": "9.4e-07",
    "MEAN_MOTION_DDOT": "0",
    "FILE": "2072828",
    "TLE_LINE0": "0 TDS 1",
    "TLE_LINE1": "1 40076U 14037H   16226.48757138  .00000094  00000-0  19418-4 0  9992",
    "TLE_LINE2": "2 40076  98.3247 319.6746 0005890 354.8163   5.2987 14.81212859113478",
    "OBJECT_ID": "2014-037H",
    "OBJECT_NUMBER": "40076",
    "SEMIMAJOR_AXIS": "7003.635",
    "PERIOD": "97.217",
    "APOGEE": "629.625",
    "PERIGEE": "621.375"
  }
]
